OBJECT_NAME,OBJECT_ID,EPOCH,MEAN_MOTION,ECCENTRICITY,INCLINATION,RA_OF_ASC_NODE,ARG_OF_PERICENTER,MEAN_ANOMALY,EPHEMERIS_TYPE,CLASSIFICATION_TYPE,NORAD_CAT_ID,ELEMENT_SET_NO,REV_AT_EPOCH,BSTAR,MEAN_MOTION_DOT,MEAN_MOTION_DDOT
FLOCK 4BE-27,2024-149AX,2026-07-16T19:06:07.035264,15.34935178,.00041758,97.3822,279.6700,176.4882,183.6392,0,U,60513,999,10668,.16157875E-3,.5394E-4,0
FLOCK 4BE-9,2024-149AY,2026-07-16T16:42:28.181664,15.41640499,.00038347,97.3789,282.2704,166.7214,193.4134,0,U,60514,999,10686,.28512528E-3,.11929E-3,0
FLOCK 4BE-6,2024-149BA,2026-07-16T19:31:58.338624,15.40346521,.00045031,97.3785,281.6903,168.1521,191.9832,0,U,60516,999,10683,.23048332E-3,.9219E-4,0
FLOCK 4BE-14,2024-149BB,2026-07-16T18:27:36.920448,15.41887264,.00055298,97.3690,281.8103,171.7333,188.4006,0,U,60517,999,10688,.24668041E-3,.10395E-3,0
FLOCK 4BE-1,2024-149BC,2026-07-16T19:38:54.086784,15.43549394,.00051605,97.3777,283.2454,171.1965,188.9375,0,U,60518,999,10694,.25496786E-3,.11365E-3,0
FLOCK 4BE-28,2024-149BD,2026-07-17T01:04:44.740992,15.46393426,.00052716,97.3742,284.2976,169.9373,190.1983,0,U,60519,999,10705,.55835361E-3,.27587E-3,0
IPERDRONE.0,2024-149BE,2026-07-16T20:03:39.301920,15.71268093,.00040039,97.3770,292.6128,164.5496,195.5890,0,U,60520,999,10756,.48349373E-3,.61387E-3,0
TRANSPORTER-11 OBJECT BF,2024-149BF,2026-07-16T19:03:23.300352,16.14064388,.00110378,97.3801,296.5346,251.5408,108.4678,0,U,60521,999,10780,.1017604E-2,.1228239E-1,.1062142E-2
CONNECTA IOT-2,2024-149BG,2026-07-16T17:23:37.707936,15.24202017,.0005706,97.3834,275.4257,206.6598,153.4347,0,U,60522,999,10639,.10037503E-3,.2375E-4,0
CONNECTA IOT-4,2024-149BJ,2026-07-16T18:50:42.079200,15.43209040,.00061573,97.3795,282.5273,169.8493,190.2881,0,U,60524,999,10689,.2811852E-3,.12403E-3,0
ORESAT0.5,2024-149BK,2026-07-17T00:40:46.003008,15.46153168,.00063382,97.3723,284.5078,158.6450,201.5065,0,U,60525,999,10708,.25648358E-3,.12499E-3,0
DEIMOS,2024-149BL,2026-07-16T21:12:03.762432,15.45232619,.00060784,97.3781,284.4850,164.7099,195.4335,0,U,60526,999,10703,.2480128E-3,.11706E-3,0
CUAVA-2,2024-149BM,2026-07-16T18:44:56.143968,15.36757327,.0007029,97.3721,279.3630,173.9228,186.2103,0,U,60527,999,10671,.20910096E-3,.7432E-4,0
ERNST,2024-149BN,2026-07-17T04:44:08.363328,15.39926230,.00063837,97.3803,282.1571,172.3354,187.7990,0,U,60528,999,10689,.19271823E-3,.759E-4,0
TORO,2024-149BQ,2026-07-16T17:27:21.531456,14.96518532,.00011517,97.6774,271.8438,102.9796,257.1554,0,U,60530,999,10437,.5559601E-4,.575E-5,0
HYPSO-2,2024-149BR,2026-07-16T16:59:37.896864,14.98938445,.00017195,97.6840,273.5404,97.4356,262.7063,0,U,60531,999,10447,.10597486E-3,.1223E-4,0
LEMU NGE,2024-149BS,2026-07-16T18:26:38.385312,14.95064503,.00005736,97.6836,272.1305,91.0536,269.0750,0,U,60532,999,10437,.10671069E-3,.1112E-4,0
LEMUR-2-STELLA,2024-149BT,2026-07-17T04:34:57.477792,15.12393884,.00012249,97.6732,280.7889,121.9085,238.2264,0,U,60533,999,10503,.34171112E-3,.5866E-4,0
SATELIOT_2,2024-149BU,2026-07-17T04:24:35.696736,14.96461570,.00014271,97.6821,272.5930,74.8742,285.2637,0,U,60534,999,10445,.35924145E-4,.351E-5,0
NIGHTJAR,2024-149BV,2026-07-17T03:53:34.500768,14.99178411,.00027305,97.6843,274.4489,92.3510,267.8026,0,U,60535,999,14736,.18838091E-3,.2234E-4,0
LEMUR-2-MARHISYAM,2024-149BW,2026-07-17T04:22:59.882592,15.11799755,.00022914,97.6875,281.2593,66.0951,294.0519,0,U,60536,999,10501,.34433031E-3,.5814E-4,0
SATELIOT_4,2024-149BX,2026-07-16T18:53:50.340480,14.96760462,.00008925,97.6728,271.7109,332.2460,27.8714,0,U,60537,999,10440,.36347829E-4,.359E-5,0
PICO-02A021,2024-149BY,2026-07-16T04:27:28.626336,15.03492308,.0003713,97.6737,275.7720,277.2422,82.8381,0,U,60538,999,10409,.1474E-3,.1948E-4,0
ICEYE-X43,2024-149BZ,2026-07-17T04:28:26.976576,14.99789309,.00064289,97.6794,274.7489,338.9157,21.1800,0,U,60539,999,10461,.54805782E-4,.619E-5,0
HAWK-10A,2024-149CA,2026-07-17T04:34:13.623744,14.96593681,.00029227,97.6886,273.5864,355.0180,5.1012,0,U,60540,999,10447,.20043805E-4,.171E-5,0
UMBRA-09,2024-149CB,2026-07-16T18:53:15.278496,15.18878818,.00020145,97.6973,285.5169,198.9521,161.1638,0,U,60541,999,10521,.42989155E-3,.8897E-4,0
QPS-SAR-8 (AMATERU-IV),2024-149CC,2026-07-17T04:38:43.295424,15.04403187,.00034626,97.6652,277.0960,37.7473,322.3995,0,U,60542,999,10478,.13094174E-3,.1767E-4,0
ARCTIC WEATHER SATELLITE,2024-149CD,2026-07-16T18:33:26.156160,14.89805032,.00027746,97.6790,267.3911,47.4964,312.6488,0,U,60543,999,10370,.38034579E-4,.311E-5,0
CAPELLA-15 (ACADIA-5),2024-149CE,2026-07-16T18:09:18.721152,14.92399963,.00029809,97.6760,269.9186,339.4741,20.6358,0,U,60544,999,10426,.21575264E-3,.2154E-4,0
HAWK-10B,2024-149CF,2026-07-16T18:56:21.702912,14.96592404,.00052765,97.6806,272.5171,8.7714,351.3599,0,U,60545,999,10441,.22717118E-4,.202E-5,0
